{"type":"FeatureCollection","features":[{"type":"Feature","geometry":{"type":"Polygon","coordinates":[[[121.2393,13.9905],[121.2162,14.0266],[121.2105,14.0644],[121.21,14.087],[121.2194,14.0823],[121.2363,14.0698],[121.259,14.0778],[121.2774,14.0904],[121.2748,14.0713],[121.2893,14.0547],[121.2641,14.0052],[121.2393,13.9905]]]},"properties":{"name":"Alaminos"}},{"type":"Feature","geometry":{"type":"Polygon","coordinates":[[[121.2925,14.1971],[121.3013,14.1781],[121.293,14.1493],[121.256,14.1146],[121.2367,14.1071],[121.2194,14.0823],[121.21,14.087],[121.2056,14.1096],[121.2146,14.1154],[121.2286,14.11],[121.2484,14.1395],[121.2631,14.1551],[121.2662,14.1785],[121.2599,14.1907],[121.2925,14.1971]]]},"properties":{"name":"Bay"}},{"type":"Feature","geometry":{"type":"Polygon","coordinates":[[[121.0998,14.3366],[121.0887,14.3174],[121.0888,14.2893],[121.0669,14.2725],[121.0543,14.2564],[121.0353,14.2489],[121.0391,14.2711],[121.0587,14.2998],[121.061,14.3227],[121.0399,14.3318],[121.0599,14.3404],[121.0765,14.3608],[121.0909,14.356],[121.0998,14.3366]]]},"properties":{"name":"Biñan"}},{"type":"Feature","geometry":{"type":"Polygon","coordinates":[[[121.1748,14.238],[121.1474,14.2313],[121.1166,14.2377],[121.0898,14.227],[121.0564,14.2091],[121.0493,14.1938],[121.0337,14.1847],[121.0264,14.1574],[121.0137,14.163],[121.0318,14.2029],[121.0528,14.2163],[121.1098,14.2407],[121.1185,14.2557],[121.1149,14.2743],[121.122,14.2774],[121.1306,14.2984],[121.1675,14.2611],[121.1748,14.238]]]},"properties":{"name":"Cabuyao"}},{"type":"Feature","geometry":{"type":"Polygon","coordinates":[[[121.2057,14.187],[121.2012,14.1721],[121.1713,14.1395],[121.1275,14.1454],[121.0951,14.1563],[121.0359,14.1518],[121.0264,14.1574],[121.0337,14.1847],[121.0493,14.1938],[121.0564,14.2091],[121.0898,14.227],[121.1166,14.2377],[121.1474,14.2313],[121.1748,14.238],[121.1872,14.2223],[121.183,14.1864],[121.2057,14.187]]]},"properties":{"name":"Calamba"}},{"type":"Feature","geometry":{"type":"Polygon","coordinates":[[[121.2999,14.2011],[121.3268,14.1781],[121.335,14.1864],[121.3473,14.1832],[121.3507,14.1693],[121.3653,14.1486],[121.3452,14.1449],[121.3221,14.1185],[121.3175,14.1072],[121.3017,14.1145],[121.2774,14.0904],[121.259,14.0778],[121.2363,14.0698],[121.2194,14.0823],[121.2367,14.1071],[121.256,14.1146],[121.293,14.1493],[121.3013,14.1781],[121.2925,14.1971],[121.2999,14.2011]]]},"properties":{"name":"Calauan"}},{"type":"Feature","geometry":{"type":"Polygon","coordinates":[[[121.5441,14.2914],[121.5455,14.2766],[121.5627,14.2699],[121.584,14.2678],[121.624,14.2926],[121.6345,14.2898],[121.6341,14.2677],[121.6179,14.2491],[121.6179,14.2349],[121.5991,14.2149],[121.59,14.1992],[121.5787,14.1989],[121.5303,14.2153],[121.4782,14.2213],[121.4745,14.2363],[121.4741,14.2657],[121.5017,14.262],[121.5034,14.2883],[121.5287,14.2852],[121.5441,14.2914]]]},"properties":{"name":"Cavinti"}},{"type":"Feature","geometry":{"type":"Polygon","coordinates":[[[121.4341,14.4264],[121.4375,14.4394],[121.4306,14.453],[121.4439,14.4523],[121.447,14.4638],[121.4616,14.4728],[121.4615,14.5054],[121.4776,14.528],[121.4874,14.5202],[121.4976,14.4936],[121.5104,14.494],[121.5176,14.4811],[121.498,14.4683],[121.4829,14.4776],[121.4548,14.45],[121.4511,14.4309],[121.4341,14.4264]]]},"properties":{"name":"Famy"}},{"type":"Feature","geometry":{"type":"Polygon","coordinates":[[[121.5853,14.357],[121.5937,14.3345],[121.5829,14.3303],[121.5692,14.3113],[121.5501,14.3005],[121.5346,14.3046],[121.5299,14.3147],[121.512,14.3193],[121.4865,14.3144],[121.469,14.3199],[121.4792,14.3513],[121.4981,14.3541],[121.58,14.3544],[121.5853,14.357]]]},"properties":{"name":"Kalayaan"}},{"type":"Feature","geometry":{"type":"Polygon","coordinates":[[[121.4386,14.1662],[121.4624,14.1173],[121.4866,14.0923],[121.4921,14.0733],[121.4832,14.0687],[121.4522,14.0948],[121.4227,14.1364],[121.4157,14.1567],[121.4146,14.1754],[121.3976,14.1953],[121.371,14.1841],[121.3704,14.193],[121.3831,14.1999],[121.3874,14.218],[121.4039,14.2198],[121.4152,14.1897],[121.4386,14.1662]]]},"properties":{"name":"Liliw"}},{"type":"Feature","geometry":{"type":"Polygon","coordinates":[[[121.2599,14.1907],[121.2662,14.1785],[121.2631,14.1551],[121.2484,14.1395],[121.2286,14.11],[121.2146,14.1154],[121.2056,14.1096],[121.1944,14.1311],[121.1713,14.1395],[121.2012,14.1721],[121.2057,14.187],[121.2124,14.1786],[121.2275,14.1839],[121.2375,14.1982],[121.2599,14.1907]]]},"properties":{"name":"Los Baños"}},{"type":"Feature","geometry":{"type":"Polygon","coordinates":[[[121.4782,14.2213],[121.5303,14.2153],[121.5787,14.1989],[121.59,14.1992],[121.6032,14.1904],[121.5907,14.1608],[121.5552,14.1627],[121.5441,14.1745],[121.5292,14.1637],[121.5257,14.1454],[121.5147,14.1493],[121.5011,14.1576],[121.4892,14.173],[121.4689,14.1867],[121.4664,14.195],[121.4573,14.211],[121.4627,14.2226],[121.4782,14.2213]]]},"properties":{"name":"Luisiana"}},{"type":"Feature","geometry":{"type":"MultiPolygon","coordinates":[[[[121.624,14.2926],[121.584,14.2678],[121.5627,14.2699],[121.5455,14.2766],[121.5441,14.2914],[121.5501,14.3005],[121.5692,14.3113],[121.5829,14.3303],[121.5937,14.3345],[121.6083,14.2969],[121.624,14.2926]]],[[[121.469,14.3199],[121.4865,14.3144],[121.512,14.3193],[121.5299,14.3147],[121.5346,14.3046],[121.5114,14.3015],[121.5034,14.2883],[121.5017,14.262],[121.4741,14.2657],[121.4619,14.2833],[121.4289,14.2767],[121.4297,14.2922],[121.4411,14.321],[121.4387,14.3371],[121.4563,14.3312],[121.469,14.3199]]]]},"properties":{"name":"Lumban"}},{"type":"Feature","geometry":{"type":"Polygon","coordinates":[[[121.4306,14.453],[121.4375,14.4394],[121.4341,14.4264],[121.4419,14.416],[121.4413,14.397],[121.4273,14.3888],[121.4104,14.3928],[121.41,14.4127],[121.3921,14.3986],[121.387,14.4119],[121.3666,14.4073],[121.3624,14.4542],[121.3762,14.4642],[121.4037,14.4615],[121.4306,14.453]]]},"properties":{"name":"Mabitac"}},{"type":"Feature","geometry":{"type":"Polygon","coordinates":[[[121.4627,14.2226],[121.4573,14.211],[121.4664,14.195],[121.4427,14.1841],[121.4386,14.1662],[121.4152,14.1897],[121.4039,14.2198],[121.411,14.227],[121.4351,14.2309],[121.4589,14.2401],[121.4627,14.2226]]]},"properties":{"name":"Magdalena"}},{"type":"Feature","geometry":{"type":"Polygon","coordinates":[[[121.5147,14.1493],[121.5176,14.1271],[121.5116,14.1014],[121.4921,14.0733],[121.4866,14.0923],[121.4624,14.1173],[121.4386,14.1662],[121.4427,14.1841],[121.4664,14.195],[121.4689,14.1867],[121.4892,14.173],[121.5011,14.1576],[121.5147,14.1493]]]},"properties":{"name":"Majayjay"}},{"type":"Feature","geometry":{"type":"Polygon","coordinates":[[[121.4832,14.0687],[121.4786,14.0648],[121.4392,14.0629],[121.4231,14.0896],[121.4197,14.1021],[121.4065,14.1102],[121.3962,14.1247],[121.3841,14.1306],[121.3693,14.1207],[121.3654,14.1216],[121.3452,14.1449],[121.3653,14.1486],[121.3507,14.1693],[121.3473,14.1832],[121.3704,14.193],[121.371,14.1841],[121.3976,14.1953],[121.4146,14.1754],[121.4157,14.1567],[121.4227,14.1364],[121.4522,14.0948],[121.4832,14.0687]]]},"properties":{"name":"Nagcarlan"}},{"type":"Feature","geometry":{"type":"Polygon","coordinates":[[[121.5606,14.4129],[121.57,14.3984],[121.5853,14.357],[121.58,14.3544],[121.4981,14.3541],[121.4792,14.3513],[121.4739,14.3706],[121.5076,14.3851],[121.5606,14.4129]]]},"properties":{"name":"Paete"}},{"type":"Feature","geometry":{"type":"Polygon","coordinates":[[[121.4741,14.2657],[121.4745,14.2363],[121.4782,14.2213],[121.4627,14.2226],[121.4589,14.2401],[121.4351,14.2309],[121.411,14.227],[121.4291,14.2677],[121.4289,14.2767],[121.4619,14.2833],[121.4741,14.2657]]]},"properties":{"name":"Pagsanjan"}},{"type":"Feature","geometry":{"type":"MultiPolygon","coordinates":[[[[121.4098,14.3784],[121.3916,14.3451],[121.3799,14.3443],[121.3653,14.3559],[121.3692,14.3751],[121.3666,14.4073],[121.387,14.4119],[121.3921,14.3986],[121.389,14.3904],[121.4098,14.3784]]],[[[121.5527,14.425],[121.5606,14.4129],[121.5076,14.3851],[121.4739,14.3706],[121.4633,14.3852],[121.4933,14.3959],[121.4949,14.4069],[121.5185,14.4243],[121.5406,14.4189],[121.5527,14.425]]]]},"properties":{"name":"Pakil"}},{"type":"Feature","geometry":{"type":"MultiPolygon","coordinates":[[[[121.4104,14.3928],[121.4098,14.3784],[121.389,14.3904],[121.3921,14.3986],[121.41,14.4127],[121.4104,14.3928]]],[[[121.5527,14.425],[121.5406,14.4189],[121.5185,14.4243],[121.4949,14.4069],[121.4933,14.3959],[121.4633,14.3852],[121.4474,14.3967],[121.4506,14.4073],[121.4895,14.4411],[121.4909,14.4509],[121.5241,14.4692],[121.5527,14.425]]]]},"properties":{"name":"Pangil"}},{"type":"Feature","geometry":{"type":"Polygon","coordinates":[[[121.3672,14.2676],[121.3747,14.2464],[121.388,14.2303],[121.3874,14.218],[121.3831,14.1999],[121.3704,14.193],[121.3689,14.2035],[121.352,14.2112],[121.3375,14.2403],[121.3501,14.2595],[121.3672,14.2676]]]},"properties":{"name":"Pila"}},{"type":"Feature","geometry":{"type":"Polygon","coordinates":[[[121.4392,14.0629],[121.4309,14.0634],[121.4021,14.0686],[121.3905,14.0924],[121.3799,14.1015],[121.3805,14.1052],[121.3708,14.1149],[121.3704,14.1159],[121.3696,14.1188],[121.3693,14.1207],[121.3841,14.1306],[121.3962,14.1247],[121.4065,14.1102],[121.4197,14.1021],[121.4231,14.0896],[121.4392,14.0629]]]},"properties":{"name":"Rizal"}},{"type":"Feature","geometry":{"type":"Polygon","coordinates":[[[121.3654,14.1216],[121.3696,14.1188],[121.3704,14.1159],[121.3708,14.1149],[121.3805,14.1052],[121.3799,14.1015],[121.3905,14.0924],[121.4021,14.0686],[121.4309,14.0634],[121.4244,14.0479],[121.4064,14.036],[121.3927,14.0337],[121.3803,14.0242],[121.3508,14.012],[121.3294,13.9858],[121.3119,13.9815],[121.2967,13.9718],[121.2784,13.9741],[121.2687,13.9665],[121.2465,13.9635],[121.2481,13.9844],[121.2393,13.9905],[121.2641,14.0052],[121.2893,14.0547],[121.2748,14.0713],[121.2774,14.0904],[121.3017,14.1145],[121.3175,14.1072],[121.3221,14.1185],[121.3452,14.1449],[121.3654,14.1216]]]},"properties":{"name":"San Pablo"}},{"type":"Feature","geometry":{"type":"Polygon","coordinates":[[[121.0765,14.3608],[121.0599,14.3404],[121.0399,14.3318],[121.0073,14.321],[121.009,14.342],[121.0299,14.366],[121.0523,14.3709],[121.057,14.3785],[121.0765,14.3608]]]},"properties":{"name":"San Pedro"}},{"type":"Feature","geometry":{"type":"Polygon","coordinates":[[[121.4297,14.2922],[121.4289,14.2767],[121.4291,14.2677],[121.411,14.227],[121.4039,14.2198],[121.3874,14.218],[121.388,14.2303],[121.3747,14.2464],[121.3672,14.2676],[121.3996,14.2884],[121.4297,14.2922]]]},"properties":{"name":"Santa Cruz"}},{"type":"Feature","geometry":{"type":"Polygon","coordinates":[[[121.4812,14.5357],[121.4776,14.528],[121.4615,14.5054],[121.4616,14.4728],[121.447,14.4638],[121.4439,14.4523],[121.4306,14.453],[121.4037,14.4615],[121.3762,14.4642],[121.3618,14.4772],[121.3705,14.5044],[121.3769,14.5094],[121.3811,14.5315],[121.4043,14.5454],[121.4204,14.5418],[121.448,14.545],[121.4393,14.5572],[121.4494,14.5696],[121.4411,14.5873],[121.452,14.5958],[121.4807,14.5568],[121.4812,14.5357]]]},"properties":{"name":"Santa Maria"}},{"type":"Feature","geometry":{"type":"Polygon","coordinates":[[[121.1306,14.2984],[121.122,14.2774],[121.1149,14.2743],[121.1185,14.2557],[121.1098,14.2407],[121.0528,14.2163],[121.0508,14.2336],[121.0543,14.2564],[121.0669,14.2725],[121.0888,14.2893],[121.0887,14.3174],[121.0998,14.3366],[121.1147,14.3296],[121.1306,14.2984]]]},"properties":{"name":"Santa Rosa"}},{"type":"Feature","geometry":{"type":"Polygon","coordinates":[[[121.5241,14.4692],[121.4909,14.4509],[121.4895,14.4411],[121.4506,14.4073],[121.4474,14.3967],[121.4413,14.397],[121.4419,14.416],[121.4341,14.4264],[121.4511,14.4309],[121.4548,14.45],[121.4829,14.4776],[121.498,14.4683],[121.5176,14.4811],[121.5104,14.494],[121.4976,14.4936],[121.4874,14.5202],[121.4776,14.528],[121.4812,14.5357],[121.5296,14.5329],[121.5346,14.5094],[121.5505,14.4924],[121.5241,14.4692]]]},"properties":{"name":"Siniloan"}},{"type":"Feature","geometry":{"type":"Polygon","coordinates":[[[121.3375,14.2403],[121.352,14.2112],[121.3689,14.2035],[121.3704,14.193],[121.3473,14.1832],[121.335,14.1864],[121.3268,14.1781],[121.2999,14.2011],[121.3128,14.2231],[121.3375,14.2403]]]},"properties":{"name":"Victoria"}}]}